start=new Date('2023-01-29T00:00:00.000Z').valueOf();
sats=[{"FILE":"3764201","EPHEMERIS_TYPE":"0","ECCENTRICITY":"0.00010200","SITE":"AFETR","MEAN_MOTION_DOT":"0.00000702","EPOCH":"2023-01-28T20:38:49.410240","REV_AT_EPOCH":"6406","OBJECT_TYPE":"PAYLOAD","TLE_LINE2":"2 49738  53.2167 208.0522 0001020  88.1125 271.9984 15.08842046 64068","CENTER_NAME":"EARTH","OBJECT_NAME":"STARLINK-3143","BSTAR":"0.00006218000000","ELEMENT_SET_NO":"999","COUNTRY_CODE":"US","DECAY_DATE":null,"MEAN_MOTION":"15.08842046","GP_ID":"223912707","RA_OF_ASC_NODE":"208.0522","LAUNCH_DATE":"2021-12-02","NORAD_CAT_ID":"49738","PERIAPSIS":"539.034","REF_FRAME":"TEME","MEAN_ELEMENT_THEORY":"SGP4","ARG_OF_PERICENTER":"88.1125","MEAN_ANOMALY":"271.9984","TIME_SYSTEM":"UTC","SEMIMAJOR_AXIS":"6917.874","PERIOD":"95.437","RCS_SIZE":"LARGE","CLASSIFICATION_TYPE":"U","OBJECT_ID":"2021-115Q","INCLINATION":"53.2167","MEAN_MOTION_DDOT":"0.0000000000000","APOAPSIS":"540.445","TLE_LINE1":"1 49738U 21115Q   23028.86029410  .00000702  00000-0  62180-4 0  9996"},{"MEAN_MOTION_DDOT":"0.0000000000000","APOAPSIS":"540.493","TLE_LINE1":"1 49739U 21115R   23028.90721502  .00001028  00000-0  82659-4 0  9998","OBJECT_ID":"2021-115R","CLASSIFICATION_TYPE":"U","INCLINATION":"53.2143","TIME_SYSTEM":"UTC","SEMIMAJOR_AXIS":"6917.867","PERIOD":"95.437","RCS_SIZE":"LARGE","ARG_OF_PERICENTER":"90.2776","MEAN_ANOMALY":"269.8343","NORAD_CAT_ID":"49739","REF_FRAME":"TEME","PERIAPSIS":"538.970","MEAN_ELEMENT_THEORY":"SGP4","LAUNCH_DATE":"2021-12-02","GP_ID":"223913455","RA_OF_ASC_NODE":"217.8471","DECAY_DATE":null,"MEAN_MOTION":"15.08844530","BSTAR":"0.00008265900000","COUNTRY_CODE":"US","ELEMENT_SET_NO":"999","CENTER_NAME":"EARTH","TLE_LINE2":"2 49739  53.2143 217.8471 0001101  90.2776 269.8343 15.08844530 63929","OBJECT_NAME":"STARLINK-3155","EPOCH":"2023-01-28T21:46:23.377728","REV_AT_EPOCH":"6392","OBJECT_TYPE":"PAYLOAD","SITE":"AFETR","MEAN_MOTION_DOT":"0.00001028","EPHEMERIS_TYPE":"0","FILE":"3764201","ECCENTRICITY":"0.00011010"},{"TIME_SYSTEM":"UTC","SEMIMAJOR_AXIS":"6917.870","PERIOD":"95.437","RCS_SIZE":"LARGE","MEAN_MOTION_DDOT":"0.0000000000000","TLE_LINE1":"1 49740U 21115S   23028.87133661  .00001285  00000-0  98796-4 0  9993","APOAPSIS":"540.523","CLASSIFICATION_TYPE":"U","OBJECT_ID":"2021-115S","INCLINATION":"53.2168","LAUNCH_DATE":"2021-12-02","GP_ID":"223913194","RA_OF_ASC_NODE":"208.0036","ARG_OF_PERICENTER":"91.0533","MEAN_ANOMALY":"269.0590","NORAD_CAT_ID":"49740","REF_FRAME":"TEME","PERIAPSIS":"538.947","MEAN_ELEMENT_THEORY":"SGP4","DECAY_DATE":null,"MEAN_MOTION":"15.08843422","BSTAR":"0.00009879600000","ELEMENT_SET_NO":"999","COUNTRY_CODE":"US","SITE":"AFETR","MEAN_MOTION_DOT":"0.00001285","FILE":"3764201","EPHEMERIS_TYPE":"0","ECCENTRICITY":"0.00011390","CENTER_NAME":"EARTH","TLE_LINE2":"2 49740  53.2168 208.0036 0001139  91.0533 269.0590 15.08843422 64069","OBJECT_NAME":"STARLINK-3226","EPOCH":"2023-01-28T20:54:43.483104","REV_AT_EPOCH":"6406","OBJECT_TYPE":"PAYLOAD"},{"ARG_OF_PERICENTER":"87.5768","MEAN_ANOMALY":"272.5356","REF_FRAME":"TEME","PERIAPSIS":"538.933","NORAD_CAT_ID":"49741","MEAN_ELEMENT_THEORY":"SGP4","LAUNCH_DATE":"2021-12-02","RA_OF_ASC_NODE":"208.0373","GP_ID":"223911959","MEAN_MOTION_DDOT":"0.0000000000000","TLE_LINE1":"1 49741U 21115T   23028.86397510  .00000222  00000-0  32026-4 0  9992","APOAPSIS":"540.531","OBJECT_ID":"2021-115T","CLASSIFICATION_TYPE":"U","INCLINATION":"53.2174","SEMIMAJOR_AXIS":"6917.867","TIME_SYSTEM":"UTC","RCS_SIZE":"LARGE","PERIOD":"95.437","CENTER_NAME":"EARTH","TLE_LINE2":"2 49741  53.2174 208.0373 0001155  87.5768 272.5356 15.08844395 64068","OBJECT_NAME":"STARLINK-3244","EPOCH":"2023-01-28T20:44:07.448640","OBJECT_TYPE":"PAYLOAD","REV_AT_EPOCH":"6406","MEAN_MOTION_DOT":"0.00000222","SITE":"AFETR","FILE":"3764201","EPHEMERIS_TYPE":"0","ECCENTRICITY":"0.00011550","MEAN_MOTION":"15.08844395","DECAY_DATE":null,"BSTAR":"0.00003202600000","ELEMENT_SET_NO":"999","COUNTRY_CODE":"US"},{"DECAY_DATE":null,"MEAN_MOTION":"15.08833158","ELEMENT_SET_NO":"999","COUNTRY_CODE":"US","BSTAR":"0.00027482000000","OBJECT_NAME":"STARLINK-3202","CENTER_NAME":"EARTH","TLE_LINE2":"2 49742  53.2159 208.2701 0001333  81.0026 279.1117 15.08833158 64055","REV_AT_EPOCH":"6405","OBJECT_TYPE":"PAYLOAD","EPOCH":"2023-01-28T19:29:57.691392","SITE":"AFETR","MEAN_MOTION_DOT":"0.00004088","ECCENTRICITY":"0.00013330","FILE":"3764201","EPHEMERIS_TYPE":"0","APOAPSIS":"540.688","TLE_LINE1":"1 49742U 21115U   23028.81247328  .00004088  00000-0  27482-3 0  9992","MEAN_MOTION_DDOT":"0.0000000000000","INCLINATION":"53.2159","OBJECT_ID":"2021-115U","CLASSIFICATION_TYPE":"U","PERIOD":"95.438","RCS_SIZE":"LARGE","TIME_SYSTEM":"UTC","SEMIMAJOR_AXIS":"6917.901","ARG_OF_PERICENTER":"81.0026","MEAN_ANOMALY":"279.1117","MEAN_ELEMENT_THEORY":"SGP4","NORAD_CAT_ID":"49742","REF_FRAME":"TEME","PERIAPSIS":"538.844","LAUNCH_DATE":"2021-12-02","GP_ID":"223912208","RA_OF_ASC_NODE":"208.2701"},{"MEAN_MOTION_DOT":"0.00000457","SITE":"AFETR","ECCENTRICITY":"0.00012530","EPHEMERIS_TYPE":"0","FILE":"3764201","OBJECT_NAME":"STARLINK-3239","CENTER_NAME":"EARTH","TLE_LINE2":"2 49743  53.2162 208.0243 0001253  81.8064 278.3070 15.08842980 64063","OBJECT_TYPE":"PAYLOAD","REV_AT_EPOCH":"6406","EPOCH":"2023-01-28T20:49:25.500864","MEAN_MOTION":"15.08842980","DECAY_DATE":null,"ELEMENT_SET_NO":"999","COUNTRY_CODE":"US","BSTAR":"0.00004676600000","LAUNCH_DATE":"2021-12-02","RA_OF_ASC_NODE":"208.0243","GP_ID":"223912956","MEAN_ANOMALY":"278.3070","ARG_OF_PERICENTER":"81.8064","MEAN_ELEMENT_THEORY":"SGP4","PERIAPSIS":"538.869","REF_FRAME":"TEME","NORAD_CAT_ID":"49743","RCS_SIZE":"LARGE","PERIOD":"95.437","SEMIMAJOR_AXIS":"6917.871","TIME_SYSTEM":"UTC","APOAPSIS":"540.603","TLE_LINE1":"1 49743U 21115V   23028.86765626  .00000457  00000-0  46766-4 0  9997","MEAN_MOTION_DDOT":"0.0000000000000","INCLINATION":"53.2162","OBJECT_ID":"2021-115V","CLASSIFICATION_TYPE":"U"},{"ECCENTRICITY":"0.00013580","EPHEMERIS_TYPE":"0","FILE":"3764201","MEAN_MOTION_DOT":"0.00003015","SITE":"AFETR","OBJECT_TYPE":"PAYLOAD","REV_AT_EPOCH":"6406","EPOCH":"2023-01-28T21:15:55.072512","OBJECT_NAME":"STARLINK-3231","CENTER_NAME":"EARTH","TLE_LINE2":"2 49744  53.2155 207.9364 0001358  78.5241 281.5904 15.08846544 64066","COUNTRY_CODE":"US","ELEMENT_SET_NO":"999","BSTAR":"0.00020741000000","MEAN_MOTION":"15.08846544","DECAY_DATE":null,"RA_OF_ASC_NODE":"207.9364","GP_ID":"223913694","LAUNCH_DATE":"2021-12-02","MEAN_ELEMENT_THEORY":"SGP4","REF_FRAME":"TEME","PERIAPSIS":"538.786","NORAD_CAT_ID":"49744","ARG_OF_PERICENTER":"78.5241","MEAN_ANOMALY":"281.5904","RCS_SIZE":"LARGE","PERIOD":"95.437","SEMIMAJOR_AXIS":"6917.860","TIME_SYSTEM":"UTC","INCLINATION":"53.2155","CLASSIFICATION_TYPE":"U","OBJECT_ID":"2021-115W","TLE_LINE1":"1 49744U 21115W   23028.88605408  .00003015  00000-0  20741-3 0  9998","APOAPSIS":"540.665","MEAN_MOTION_DDOT":"0.0000000000000"},{"TLE_LINE2":"2 49745  53.2151 208.2913 0001149  90.4856 269.6268 15.08841325 64051","CENTER_NAME":"EARTH","OBJECT_NAME":"STARLINK-3241","EPOCH":"2023-01-28T19:24:38.278368","OBJECT_TYPE":"PAYLOAD","REV_AT_EPOCH":"6405","MEAN_MOTION_DOT":"0.00000322","SITE":"AFETR","EPHEMERIS_TYPE":"0","FILE":"3764201","ECCENTRICITY":"0.00011490","MEAN_MOTION":"15.08841325","DECAY_DATE":null,"BSTAR":"0.00003828200000","COUNTRY_CODE":"US","ELEMENT_SET_NO":"999","MEAN_ANOMALY":"269.6268","ARG_OF_PERICENTER":"90.4856","PERIAPSIS":"538.946","REF_FRAME":"TEME","NORAD_CAT_ID":"49745","MEAN_ELEMENT_THEORY":"SGP4","LAUNCH_DATE":"2021-12-02","RA_OF_ASC_NODE":"208.2913","GP_ID":"223912458","MEAN_MOTION_DDOT":"0.0000000000000","TLE_LINE1":"1 49745U 21115X   23028.80877637  .00000322  00000-0  38282-4 0  9994","APOAPSIS":"540.536","CLASSIFICATION_TYPE":"U","OBJECT_ID":"2021-115X","INCLINATION":"53.2151","SEMIMAJOR_AXIS":"6917.876","TIME_SYSTEM":"UTC","RCS_SIZE":"LARGE","PERIOD":"95.437"},{"INCLINATION":"53.2171","OBJECT_ID":"2021-115Y","CLASSIFICATION_TYPE":"U","APOAPSIS":"540.540","TLE_LINE1":"1 49746U 21115Y   23028.89341030  .00000855  00000-0  71802-4 0  9993","MEAN_MOTION_DDOT":"0.0000000000000","RCS_SIZE":"MEDIUM","PERIOD":"95.437","SEMIMAJOR_AXIS":"6917.855","TIME_SYSTEM":"UTC","MEAN_ELEMENT_THEORY":"SGP4","PERIAPSIS":"538.901","REF_FRAME":"TEME","NORAD_CAT_ID":"49746","ARG_OF_PERICENTER":"88.4697","MEAN_ANOMALY":"271.6431","RA_OF_ASC_NODE":"207.9003","GP_ID":"223912708","LAUNCH_DATE":"2021-12-02","ELEMENT_SET_NO":"999","COUNTRY_CODE":"US","BSTAR":"0.00007180200000","MEAN_MOTION":"15.08848217","DECAY_DATE":null,"OBJECT_TYPE":"PAYLOAD","REV_AT_EPOCH":"6406","EPOCH":"2023-01-28T21:26:30.649920","OBJECT_NAME":"STARLINK-3233","CENTER_NAME":"EARTH","TLE_LINE2":"2 49746  53.2171 207.9003 0001185  88.4697 271.6431 15.08848217 64063","ECCENTRICITY":"0.00011850","FILE":"3764201","EPHEMERIS_TYPE":"0","MEAN_MOTION_DOT":"0.00000855","SITE":"AFETR"},{"OBJECT_TYPE":"PAYLOAD","REV_AT_EPOCH":"6406","EPOCH":"2023-01-28T21:10:38.703360","OBJECT_NAME":"STARLINK-3247","TLE_LINE2":"2 49747  53.2156 207.9590 0001084  83.5237 276.5878 15.08835434 64068","CENTER_NAME":"EARTH","ECCENTRICITY":"0.00010840","EPHEMERIS_TYPE":"0","FILE":"3764201","MEAN_MOTION_DOT":"0.00000637","SITE":"AFETR","COUNTRY_CODE":"US","ELEMENT_SET_NO":"999","BSTAR":"0.00005810800000","MEAN_MOTION":"15.08835434","DECAY_DATE":null,"MEAN_ELEMENT_THEORY":"SGP4","PERIAPSIS":"539.009","REF_FRAME":"TEME","NORAD_CAT_ID":"49747","ARG_OF_PERICENTER":"83.5237","MEAN_ANOMALY":"276.5878","RA_OF_ASC_NODE":"207.9590","GP_ID":"223913456","LAUNCH_DATE":"2021-12-02","INCLINATION":"53.2156","OBJECT_ID":"2021-115Z","CLASSIFICATION_TYPE":"U","TLE_LINE1":"1 49747U 21115Z   23028.88239240  .00000637  00000-0  58108-4 0  9994","APOAPSIS":"540.509","MEAN_MOTION_DDOT":"0.0000000000000","RCS_SIZE":"MEDIUM","PERIOD":"95.438","SEMIMAJOR_AXIS":"6917.894","TIME_SYSTEM":"UTC"}];
